ORBCOMM FM33 [-]        
1 25983U 99065D   24109.38773845  .00003394  00000+0  11683-2 0  9996
2 25983  45.0276 214.7518 0007086  92.4174  17.6586 14.37550048274888
ORBCOMM FM36 [-]        
1 25984U 99065E   24109.65183377  .00003755  00000+0  13439-2 0  9994
2 25984  45.0393 298.6293 0002919 319.9684  40.0948 14.35424639273361
ORBCOMM FM35 [+]        
1 25985U 99065F   24109.89628693  .00002503  00000+0  91930-3 0  9999
2 25985  45.0402 300.0548 0003132  82.7703 277.3500 14.35032441273791
ORBCOMM FM34 [-]        
1 25986U 99065G   24109.65735341  .00002657  00000+0  97340-3 0  9994
2 25986  45.0394 301.7116 0003211  19.9134 340.1838 14.34995448273875
ORBCOMM FM38 [-]        
1 33060U 08031A   24109.38361819  .00004693  00000+0  68215-3 0  9995
2 33060  48.4399 173.5753 0005425   9.9997 350.1024 14.77330108851857
ORBCOMM FM41 [-]        
1 33061U 08031B   24109.44326035  .00004740  00000+0  69295-3 0  9996
2 33061  48.4436 179.8611 0004811 354.4818 101.7349 14.77063149851364
ORBCOMM FM29 [-]        
1 33062U 08031C   24110.22994997  .00004863  00000+0  71119-3 0  9997
2 33062  48.4385 184.1719 0006553 359.1475  30.6424 14.76997935851780
ORBCOMM FM39 [-]        
1 33063U 08031D   24109.49862030  .00004334  00000+0  65156-3 0  9994
2 33063  48.4397 207.9852 0007715 333.0524  26.9988 14.76018809850981
